{"type": "FeatureCollection", "features": [ {"type": "Feature", "properties": {"norad_id": 31365, "name": "FENGYUN 1C DEB", "group": "fengyun-1c-debris", "lat": 26.073626823150743, "lon": -108.15721547743527, "alt_km": 745.5484304022048, "timestamp": "2025-12-08T13:49:32.074788+00:00", "meta": {"OBJECT_NAME": "FENGYUN 1C DEB", "OBJECT_ID": "1999-025BRV", "EPOCH": "2025-12-08T04:47:02.280480", "MEAN_MOTION": 14.41748915, "ECCENTRICITY": 0.00421371, "INCLINATION": 98.675, "RA_OF_ASC_NODE": 67.1758, "ARG_OF_PERICENTER": 232.9188, "MEAN_ANOMALY": 126.8146, "EPHEMERIS_TYPE": 0, "CLASSIFICATION_TYPE": "U", "NORAD_CAT_ID": 31365, "ELEMENT_SET_NO": 999, "REV_AT_EPOCH": 96563, "BSTAR": 0.0026081853, "MEAN_MOTION_DOT": 8.567e-05, "MEAN_MOTION_DDOT": 0}, "tle": {"line1": "1 31365U 99025BRV 25342.19933195  .00008567  00000+0  26082-2 0  9994", "line2": "2 31365  98.6750  67.1758 0042137 232.9188 126.8146 14.41748915965630"}}, "geometry": {"type": "Point", "coordinates": [-108.15721547743527, 26.073626823150743]}}, {"type": "Feature", "properties": {"norad_id": 31367, "name": "FENGYUN 1C DEB", "group": "fengyun-1c-debris", "lat": -29.62401514620501, "lon": -118.27704462631759, "alt_km": 702.5159233149707, "timestamp": "2025-12-08T13:49:32.074799+00:00", "meta": {"OBJECT_NAME": "FENGYUN 1C DEB", "OBJECT_ID": "1999-025BRX", "EPOCH": "2025-12-08T06:15:10.988640", "MEAN_MOTION": 14.47455228, "ECCENTRICITY": 0.00996931, "INCLINATION": 98.7462, "RA_OF_ASC_NODE": 236.3748, "ARG_OF_PERICENTER": 29.761, "MEAN_ANOMALY": 98.1266, "EPHEMERIS_TYPE": 0, "CLASSIFICATION_TYPE": "U", "NORAD_CAT_ID": 31367, "ELEMENT_SET_NO": 999, "REV_AT_EPOCH": 98401, "BSTAR": 0.00092525379, "MEAN_MOTION_DOT": 3.566e-05, "MEAN_MOTION_DDOT": 0}, "tle": {"line1": "1 31367U 99025BRX 25342.26054385  .00003566  00000+0  92525-3 0  9999", "line2": "2 31367  98.7462 236.3748 0099693  29.7610  98.1266 14.47455228984018"}}, "geometry": {"type": "Point", "coordinates": [-118.27704462631759, -29.62401514620501]}}, {"type": "Feature", "properties": {"norad_id": 31369, "name": "FENGYUN 1C DEB", "group": "fengyun-1c-debris", "lat": 77.99719943770627, "lon": -81.53789249967053, "alt_km": 845.2523652702694, "timestamp": "2025-12-08T13:49:32.074809+00:00", "meta": {"OBJECT_NAME": "FENGYUN 1C DEB", "OBJECT_ID": "1999-025BRZ", "EPOCH": "2025-12-02T05:15:55.988064", "MEAN_MOTION": 14.19388452, "ECCENTRICITY": 0.005489, "INCLINATION": 98.6175, "RA_OF_ASC_NODE": 317.7793, "ARG_OF_PERICENTER": 330.1727, "MEAN_ANOMALY": 47.9039, "EPHEMERIS_TYPE": 0, "CLASSIFICATION_TYPE": "U", "NORAD_CAT_ID": 31369, "ELEMENT_SET_NO": 999, "REV_AT_EPOCH": 64178, "BSTAR": 0.00040201, "MEAN_MOTION_DOT": 8.15e-06, "MEAN_MOTION_DDOT": 0}, "tle": {"line1": "1 31369U 99025BRZ 25336.21939801  .00000815  00000+0  40201-3 0  9992", "line2": "2 31369  98.6175 317.7793 0054890 330.1727  47.9039 14.19388452641789"}}, "geometry": {"type": "Point", "coordinates": [-81.53789249967053, 77.99719943770627]}}, {"type": "Feature", "properties": {"norad_id": 31370, "name": "FENGYUN 1C DEB", "group": "fengyun-1c-debris", "lat": 0.8598073198028211, "lon": -17.43079437440993, "alt_km": 847.7995130660856, "timestamp": "2025-12-08T13:49:32.074819+00:00", "meta": {"OBJECT_NAME": "FENGYUN 1C DEB", "OBJECT_ID": "1999-025BSA", "EPOCH": "2025-12-03T11:10:24.268224", "MEAN_MOTION": 14.09686903, "ECCENTRICITY": 0.00337804, "INCLINATION": 98.7524, "RA_OF_ASC_NODE": 337.7333, "ARG_OF_PERICENTER": 324.3179, "MEAN_ANOMALY": 35.5734, "EPHEMERIS_TYPE": 0, "CLASSIFICATION_TYPE": "U", "NORAD_CAT_ID": 31370, "ELEMENT_SET_NO": 999, "REV_AT_EPOCH": 96163, "BSTAR": 0.0004582284, "MEAN_MOTION_DOT": 7.65e-06, "MEAN_MOTION_DDOT": 0}, "tle": {"line1": "1 31370U 99025BSA 25337.46555866  .00000765  00000+0  45823-3 0  9996", "line2": "2 31370  98.7524 337.7333 0033780 324.3179  35.5734 14.09686903961638"}}, "geometry": {"type": "Point", "coordinates": [-17.43079437440993, 0.8598073198028211]}}, {"type": "Feature", "properties": {"norad_id": 31371, "name": "FENGYUN 1C DEB", "group": "fengyun-1c-debris", "lat": -18.101163812009023, "lon": 18.601493907267248, "alt_km": 876.2544519508001, "timestamp": "2025-12-08T13:49:32.074829+00:00", "meta": {"OBJECT_NAME": "FENGYUN 1C DEB", "OBJECT_ID": "1999-025BSB", "EPOCH": "2025-12-03T19:21:30.444768", "MEAN_MOTION": 14.04472335, "ECCENTRICITY": 0.00776168, "INCLINATION": 98.7673, "RA_OF_ASC_NODE": 11.1049, "ARG_OF_PERICENTER": 271.8024, "MEAN_ANOMALY": 87.4256, "EPHEMERIS_TYPE": 0, "CLASSIFICATION_TYPE": "U", "NORAD_CAT_ID": 31371, "ELEMENT_SET_NO": 999, "REV_AT_EPOCH": 95621, "BSTAR": 0.0012264361, "MEAN_MOTION_DOT": 1.966e-05, "MEAN_MOTION_DDOT": 0}, "tle": {"line1": "1 31371U 99025BSB 25337.80660237  .00001966  00000+0  12264-2 0  9990", "line2": "2 31371  98.7673  11.1049 0077616 271.8024  87.4256 14.04472335956212"}}, "geometry": {"type": "Point", "coordinates": [18.601493907267248, -18.101163812009023]}}, {"type": "Feature", "properties": {"norad_id": 31372, "name": "FENGYUN 1C DEB", "group": "fengyun-1c-debris", "lat": 65.94558310411703, "lon": 175.0471597486733, "alt_km": 775.1343904172281, "timestamp": "2025-12-08T13:49:32.074839+00:00", "meta": {"OBJECT_NAME": "FENGYUN 1C DEB", "OBJECT_ID": "1999-025BSC", "EPOCH": "2025-12-08T04:53:13.403904", "MEAN_MOTION": 14.26484611, "ECCENTRICITY": 0.00337568, "INCLINATION": 99.3738, "RA_OF_ASC_NODE": 332.9291, "ARG_OF_PERICENTER": 87.6364, "MEAN_ANOMALY": 272.8678, "EPHEMERIS_TYPE": 0, "CLASSIFICATION_TYPE": "U", "NORAD_CAT_ID": 31372, "ELEMENT_SET_NO": 999, "REV_AT_EPOCH": 95786, "BSTAR": 0.0022135546, "MEAN_MOTION_DOT": 5.318e-05, "MEAN_MOTION_DDOT": 0}, "tle": {"line1": "1 31372U 99025BSC 25342.20362736  .00005318  00000+0  22136-2 0  9998", "line2": "2 31372  99.3738 332.9291 0033756  87.6364 272.8678 14.26484611957866"}}, "geometry": {"type": "Point", "coordinates": [175.0471597486733, 65.94558310411703]}}, {"type": "Feature", "properties": {"norad_id": 31376, "name": "FENGYUN 1C DEB", "group": "fengyun-1c-debris", "lat": -27.722988980587495, "lon": 73.8187834101633, "alt_km": 684.1723377036151, "timestamp": "2025-12-08T13:49:32.074849+00:00", "meta": {"OBJECT_NAME": "FENGYUN 1C DEB", "OBJECT_ID": "1999-025BSG", "EPOCH": "2025-12-08T06:17:58.986528", "MEAN_MOTION": 14.61549819, "ECCENTRICITY": 0.00496344, "INCLINATION": 98.833, "RA_OF_ASC_NODE": 258.1715, "ARG_OF_PERICENTER": 283.0755, "MEAN_ANOMALY": 76.4907, "EPHEMERIS_TYPE": 0, "CLASSIFICATION_TYPE": "U", "NORAD_CAT_ID": 31376, "ELEMENT_SET_NO": 999, "REV_AT_EPOCH": 98077, "BSTAR": 0.0027930189, "MEAN_MOTION_DOT": 0.00014081, "MEAN_MOTION_DDOT": 0}, "tle": {"line1": "1 31376U 99025BSG 25342.26248827  .00014081  00000+0  27930-2 0  9996", "line2": "2 31376  98.8330 258.1715 0049634 283.0755  76.4907 14.61549819980770"}}, "geometry": {"type": "Point", "coordinates": [73.8187834101633, -27.722988980587495]}}, {"type": "Feature", "properties": {"norad_id": 31378, "name": "FENGYUN 1C DEB", "group": "fengyun-1c-debris", "lat": -26.13372470673168, "lon": -123.71478411308124, "alt_km": 1038.7604103905278, "timestamp": "2025-12-08T13:49:32.074859+00:00", "meta": {"OBJECT_NAME": "FENGYUN 1C DEB", "OBJECT_ID": "1999-025BSJ", "EPOCH": "2025-12-05T21:34:45.002208", "MEAN_MOTION": 13.80059858, "ECCENTRICITY": 0.01686287, "INCLINATION": 100.7554, "RA_OF_ASC_NODE": 227.8951, "ARG_OF_PERICENTER": 215.1982, "MEAN_ANOMALY": 143.7934, "EPHEMERIS_TYPE": 0, "CLASSIFICATION_TYPE": "U", "NORAD_CAT_ID": 31378, "ELEMENT_SET_NO": 999, "REV_AT_EPOCH": 94129, "BSTAR": 0.0011323051, "MEAN_MOTION_DOT": 1.254e-05, "MEAN_MOTION_DDOT": 0}, "tle": {"line1": "1 31378U 99025BSJ 25339.89913197  .00001254  00000+0  11323-2 0  9999", "line2": "2 31378 100.7554 227.8951 0168628 215.1982 143.7934 13.80059858941292"}}, "geometry": {"type": "Point", "coordinates": [-123.71478411308124, -26.13372470673168]}}, {"type": "Feature", "properties": {"norad_id": 31381, "name": "FENGYUN 1C DEB", "group": "fengyun-1c-debris", "lat": 77.51534662246198, "lon": 23.587428031372557, "alt_km": 645.6602321053424, "timestamp": "2025-12-08T13:49:32.074870+00:00", "meta": {"OBJECT_NAME": "FENGYUN 1C DEB", "OBJECT_ID": "1999-025BSM", "EPOCH": "2025-12-06T11:19:58.452384", "MEAN_MOTION": 14.3702368, "ECCENTRICITY": 0.01989303, "INCLINATION": 98.493, "RA_OF_ASC_NODE": 63.9529, "ARG_OF_PERICENTER": 50.6688, "MEAN_ANOMALY": 311.1945, "EPHEMERIS_TYPE": 0, "CLASSIFICATION_TYPE": "U", "NORAD_CAT_ID": 31381, "ELEMENT_SET_NO": 999, "REV_AT_EPOCH": 97310, "BSTAR": 0.00062022394, "MEAN_MOTION_DOT": 2.261e-05, "MEAN_MOTION_DDOT": 0}, "tle": {"line1": "1 31381U 99025BSM 25340.47220431  .00002261  00000+0  62022-3 0  9993", "line2": "2 31381  98.4930  63.9529 0198930  50.6688 311.1945 14.37023680973106"}}, "geometry": {"type": "Point", "coordinates": [23.587428031372557, 77.51534662246198]}}, {"type": "Feature", "properties": {"norad_id": 31383, "name": "FENGYUN 1C DEB", "group": "fengyun-1c-debris", "lat": -39.69453842705537, "lon": -143.10970739078218, "alt_km": 905.2735504664906, "timestamp": "2025-12-08T13:49:32.074880+00:00", "meta": {"OBJECT_NAME": "FENGYUN 1C DEB", "OBJECT_ID": "1999-025BSP", "EPOCH": "2025-12-06T15:22:52.710240", "MEAN_MOTION": 14.05680156, "ECCENTRICITY": 0.010778, "INCLINATION": 99.0681, "RA_OF_ASC_NODE": 42.5718, "ARG_OF_PERICENTER": 334.5787, "MEAN_ANOMALY": 179.2886, "EPHEMERIS_TYPE": 0, "CLASSIFICATION_TYPE": "U", "NORAD_CAT_ID": 31383, "ELEMENT_SET_NO": 999, "REV_AT_EPOCH": 95283, "BSTAR": 0.0011903311, "MEAN_MOTION_DOT": 1.999e-05, "MEAN_MOTION_DDOT": 0}, "tle": {"line1": "1 31383U 99025BSP 25340.64088785  .00001999  00000+0  11903-2 0  9996", "line2": "2 31383  99.0681  42.5718 0107780 334.5787 179.2886 14.05680156952834"}}, "geometry": {"type": "Point", "coordinates": [-143.10970739078218, -39.69453842705537]}}]}